{
  "type": "FeatureCollection",
  "features": [
    {
      "type": "Feature",
      "properties": {
        "norad_id": 66604,
        "name": "STARLINK-35977",
        "group": "last-30-days",
        "lat": -41.17624980946487,
        "lon": 1.7986427786276573,
        "alt_km": 446.3948621224172,
        "timestamp": "2025-12-26T16:33:54.328738+00:00",
        "meta_object_name": "STARLINK-35977",
        "meta_object_id": "2025-270S",
        "meta_epoch": "2025-12-25T14:34:12.556128",
        "meta_mean_motion": 15.40692827,
        "meta_eccentricity": 0.0001025,
        "meta_inclination": 43.0004,
        "meta_ra_of_asc_node": 118.2151,
        "meta_arg_of_pericenter": 242.851,
        "meta_mean_anomaly": 117.2242,
        "meta_ephemeris_type": 0,
        "meta_classification_type": "U",
        "meta_norad_cat_id": 66604,
        "meta_element_set_no": 999,
        "meta_rev_at_epoch": 633,
        "meta_bstar": 0.0010442,
        "meta_mean_motion_dot": 0.00043554,
        "meta_mean_motion_ddot": 0,
        "tle_line1": "1 66604U 25270S   25359.60708977  .00043554  00000+0  10442-2 0  9999",
        "tle_line2": "2 66604  43.0004 118.2151 0001025 242.8510 117.2242 15.40692827  6339"
      },
      "geometry": {
        "type": "Point",
        "coordinates": [
          1.7986427786276573,
          -41.17624980946487
        ]
      }
    },
    {
      "type": "Feature",
      "properties": {
        "norad_id": 66605,
        "name": "STARLINK-36052",
        "group": "last-30-days",
        "lat": -20.139066672434474,
        "lon": 88.6125091426822,
        "alt_km": 445.25559638592676,
        "timestamp": "2025-12-26T16:33:54.328747+00:00",
        "meta_object_name": "STARLINK-36052",
        "meta_object_id": "2025-270T",
        "meta_epoch": "2025-12-25T17:21:34.257024",
        "meta_mean_motion": 15.40746331,
        "meta_eccentricity": 4.705e-05,
        "meta_inclination": 42.9964,
        "meta_ra_of_asc_node": 117.3649,
        "meta_arg_of_pericenter": 297.8013,
        "meta_mean_anomaly": 62.2795,
        "meta_ephemeris_type": 0,
        "meta_classification_type": "U",
        "meta_norad_cat_id": 66605,
        "meta_element_set_no": 999,
        "meta_rev_at_epoch": 635,
        "meta_bstar": 0.0013972926,
        "meta_mean_motion_dot": 0.00058604,
        "meta_mean_motion_ddot": 0,
        "tle_line1": "1 66605U 25270T   25359.72331316  .00058604  00000+0  13973-2 0  9996",
        "tle_line2": "2 66605  42.9964 117.3649 0000470 297.8013  62.2795 15.40746331  6350"
      },
      "geometry": {
        "type": "Point",
        "coordinates": [
          88.6125091426822,
          -20.139066672434474
        ]
      }
    },
    {
      "type": "Feature",
      "properties": {
        "norad_id": 66606,
        "name": "STARLINK-36063",
        "group": "last-30-days",
        "lat": 34.602068320301484,
        "lon": 159.34137281700276,
        "alt_km": 439.34844465454444,
        "timestamp": "2025-12-26T16:33:54.328757+00:00",
        "meta_object_name": "STARLINK-36063",
        "meta_object_id": "2025-270U",
        "meta_epoch": "2025-12-26T00:00:02.000160",
        "meta_mean_motion": 15.40690142,
        "meta_eccentricity": 0.00015611,
        "meta_inclination": 43.0003,
        "meta_ra_of_asc_node": 115.5581,
        "meta_arg_of_pericenter": 275.4953,
        "meta_mean_anomaly": 268.2775,
        "meta_ephemeris_type": 0,
        "meta_classification_type": "U",
        "meta_norad_cat_id": 66606,
        "meta_element_set_no": 999,
        "meta_rev_at_epoch": 604,
        "meta_bstar": -9.7090943e-05,
        "meta_mean_motion_dot": -4.356e-05,
        "meta_mean_motion_ddot": 0,
        "tle_line1": "1 66606U 25270U   25360.00002315 -.00004356  00000+0 -97091-4 0  9996",
        "tle_line2": "2 66606  43.0003 115.5581 0001561 275.4953 268.2775 15.40690142  6049"
      },
      "geometry": {
        "type": "Point",
        "coordinates": [
          159.34137281700276,
          34.602068320301484
        ]
      }
    },
    {
      "type": "Feature",
      "properties": {
        "norad_id": 66607,
        "name": "STARLINK-35993",
        "group": "last-30-days",
        "lat": -12.04643317188535,
        "lon": 98.5210502109686,
        "alt_km": 444.7135132832482,
        "timestamp": "2025-12-26T16:33:54.328766+00:00",
        "meta_object_name": "STARLINK-35993",
        "meta_object_id": "2025-270V",
        "meta_epoch": "2025-12-25T17:18:19.288512",
        "meta_mean_motion": 15.40741183,
        "meta_eccentricity": 0.00016255,
        "meta_inclination": 43.0008,
        "meta_ra_of_asc_node": 117.3464,
        "meta_arg_of_pericenter": 249.0774,
        "meta_mean_anomaly": 110.9909,
        "meta_ephemeris_type": 0,
        "meta_classification_type": "U",
        "meta_norad_cat_id": 66607,
        "meta_element_set_no": 999,
        "meta_rev_at_epoch": 625,
        "meta_bstar": 0.001395574,
        "meta_mean_motion_dot": 0.00058522,
        "meta_mean_motion_ddot": 0,
        "tle_line1": "1 66607U 25270V   25359.72105658  .00058522  00000+0  13956-2 0  9996",
        "tle_line2": "2 66607  43.0008 117.3464 0001625 249.0774 110.9909 15.40741183  6251"
      },
      "geometry": {
        "type": "Point",
        "coordinates": [
          98.5210502109686,
          -12.04643317188535
        ]
      }
    },
    {
      "type": "Feature",
      "properties": {
        "norad_id": 66608,
        "name": "STARLINK-36036",
        "group": "last-30-days",
        "lat": 39.48311991593532,
        "lon": 173.68804511939885,
        "alt_km": 438.742893788909,
        "timestamp": "2025-12-26T16:33:54.328775+00:00",
        "meta_object_name": "STARLINK-36036",
        "meta_object_id": "2025-270W",
        "meta_epoch": "2025-12-26T00:00:02.000160",
        "meta_mean_motion": 15.40691202,
        "meta_eccentricity": 0.00015514,
        "meta_inclination": 43.0003,
        "meta_ra_of_asc_node": 115.5277,
        "meta_arg_of_pericenter": 272.8529,
        "meta_mean_anomaly": 283.3616,
        "meta_ephemeris_type": 0,
        "meta_classification_type": "U",
        "meta_norad_cat_id": 66608,
        "meta_element_set_no": 999,
        "meta_rev_at_epoch": 604,
        "meta_bstar": -0.00015885025,
        "meta_mean_motion_dot": -6.931e-05,
        "meta_mean_motion_ddot": 0,
        "tle_line1": "1 66608U 25270W   25360.00002315 -.00006931  00000+0 -15885-3 0  9999",
        "tle_line2": "2 66608  43.0003 115.5277 0001551 272.8529 283.3616 15.40691202  6042"
      },
      "geometry": {
        "type": "Point",
        "coordinates": [
          173.68804511939885,
          39.48311991593532
        ]
      }
    },
    {
      "type": "Feature",
      "properties": {
        "norad_id": 66609,
        "name": "STARLINK-36034",
        "group": "last-30-days",
        "lat": 42.864737929488925,
        "lon": -153.37129686850787,
        "alt_km": 438.3431927022857,
        "timestamp": "2025-12-26T16:33:54.328787+00:00",
        "meta_object_name": "STARLINK-36034",
        "meta_object_id": "2025-270X",
        "meta_epoch": "2025-12-26T00:00:02.000160",
        "meta_mean_motion": 15.4069776,
        "meta_eccentricity": 0.00015654,
        "meta_inclination": 43.0001,
        "meta_ra_of_asc_node": 115.4677,
        "meta_arg_of_pericenter": 269.7362,
        "meta_mean_anomaly": 311.3446,
        "meta_ephemeris_type": 0,
        "meta_classification_type": "U",
        "meta_norad_cat_id": 66609,
        "meta_element_set_no": 999,
        "meta_rev_at_epoch": 612,
        "meta_bstar": -0.00017145472,
        "meta_mean_motion_dot": -7.458e-05,
        "meta_mean_motion_ddot": 0,
        "tle_line1": "1 66609U 25270X   25360.00002315 -.00007458  00000+0 -17145-3 0  9996",
        "tle_line2": "2 66609  43.0001 115.4677 0001565 269.7362 311.3446 15.40697760  6126"
      },
      "geometry": {
        "type": "Point",
        "coordinates": [
          -153.37129686850787,
          42.864737929488925
        ]
      }
    },
    {
      "type": "Feature",
      "properties": {
        "norad_id": 66610,
        "name": "STARLINK-35680",
        "group": "last-30-days",
        "lat": 4.5065973388733465,
        "lon": 116.5524418689707,
        "alt_km": 443.2613511970567,
        "timestamp": "2025-12-26T16:33:54.328796+00:00",
        "meta_object_name": "STARLINK-35680",
        "meta_object_id": "2025-270Y",
        "meta_epoch": "2025-12-26T00:00:02.000160",
        "meta_mean_motion": 15.40693056,
        "meta_eccentricity": 0.00016828,
        "meta_inclination": 43.0004,
        "meta_ra_of_asc_node": 115.6787,
        "meta_arg_of_pericenter": 271.0241,
        "meta_mean_anomaly": 222.9844,
        "meta_ephemeris_type": 0,
        "meta_classification_type": "U",
        "meta_norad_cat_id": 66610,
        "meta_element_set_no": 999,
        "meta_rev_at_epoch": 604,
        "meta_bstar": -5.5230476e-05,
        "meta_mean_motion_dot": -2.609e-05,
        "meta_mean_motion_ddot": 0,
        "tle_line1": "1 66610U 25270Y   25360.00002315 -.00002609  00000+0 -55230-4 0  9999",
        "tle_line2": "2 66610  43.0004 115.6787 0001682 271.0241 222.9844 15.40693056  6041"
      },
      "geometry": {
        "type": "Point",
        "coordinates": [
          116.5524418689707,
          4.5065973388733465
        ]
      }
    }
  ]
}